OBJECT_NAME,OBJECT_ID,EPOCH,MEAN_MOTION,ECCENTRICITY,INCLINATION,RA_OF_ASC_NODE,ARG_OF_PERICENTER,MEAN_ANOMALY,EPHEMERIS_TYPE,CLASSIFICATION_TYPE,NORAD_CAT_ID,ELEMENT_SET_NO,REV_AT_EPOCH,BSTAR,MEAN_MOTION_DOT,MEAN_MOTION_DDOT
SPACEMOBILE-004,2024-163E,2026-07-16T08:16:06.262752,15.20779499,.0005984,52.9692,174.8353,230.9141,129.1322,0,U,61049,999,10220,.56003078E-3,.12194E-3,0
CZ-8A R/B,2025-231K,2026-07-17T22:28:44.948640,14.30162623,.01165527,50.0037,268.4955,332.2675,27.2057,0,U,66004,999,3934,.4082894E-4,-.5E-6,0
SZ-21 MODULE,2025-246C,2026-07-17T18:56:06.701280,15.78993742,.00087627,41.4716,116.3539,238.0565,121.9429,0,U,66515,999,3857,.18070392E-3,.32913E-3,0
SPACEMOBILE-006,2025-309A,2026-07-17T09:10:58.240128,15.18659721,.0009874,52.9933,193.3130,222.5585,137.4644,0,U,67232,999,3118,.70391E-4,.1156E-4,0
SPACEMOBILE-008,2026-139A,2026-07-17T19:05:27.280032,15.12804081,.00051516,52.9950,123.6019,62.6150,297.5364,0,U,69589,999,461,.34486896E-4,.311E-5,0
SPACEMOBILE-009,2026-139B,2026-07-17T22:18:49.574016,15.12697715,.00054087,52.9941,123.0096,59.0065,301.1457,0,U,69590,999,463,.36570278E-4,.346E-5,0
SPACEMOBILE-010,2026-139C,2026-07-17T22:23:44.249856,15.12535224,.00053861,52.9947,123.0339,51.6637,308.4837,0,U,69591,999,464,.81266822E-4,.1132E-4,0
